satname,norad_id,inclination_deg,eccentricity,mean_motion_rev_per_day,perigee_km,apogee_km,l1,l2
STARLINK-1351,45697,53.0431,0.0002158,15.66836101,366.5075086972165,369.41912559409684,1 45697U 20035AS  26162.61591925  .00049437  00000+0  46146-3 0  9996,2 45697  53.0431 283.8121 0002158 154.1445 205.9678 15.66836101334031
STARLINK-1400,45700,53.0422,0.000196,15.65552683,370.32676062297196,372.972677016749,1 45700U 20035AV  26162.88857549  .00045318  00000+0  44602-3 0  9996,2 45700  53.0422 285.0733 0001960  46.6547 313.4631 15.65552683334030
STARLINK-1403,45701,53.1544,0.000145,15.34348738,461.8636619881563,463.847549843872,1 45701U 20035AW  26162.73649406  .00044986  00000+0  13367-2 0  9995,2 45701  53.1544 319.1390 0001450 243.4289 116.6565 15.34348738333554
STARLINK-1407,45703,53.0277,0.000695,15.74744374,340.6858637776777,350.03152279134247,1 45703U 20035AY  26162.40984188  .00111775  00000+0  73845-3 0  9999,2 45703  53.0277 213.7431 0006950  35.9171 324.2313 15.74744374334994
STARLINK-1411,45706,53.027,0.0011469,15.96978938,275.1665406841621,290.4454116829311,1 45706U 20035BB  26163.00003472  .00556455  14138-3  12543-2 0  9993,2 45706  53.0270 231.4634 0011469 356.1806 103.5625 15.96978938  5916
STARLINK-1423,45710,53.0437,0.0004894,15.69636729,356.6388189937479,363.2340452691169,1 45710U 20035BF  26162.61872365  .00058365  00000+0  48439-3 0  9999,2 45710  53.0437 282.7322 0004894  95.0173 265.1403 15.69636729334035
STARLINK-1433,45711,53.0431,0.0004481,15.69197212,358.17465851032375,364.2144474481038,1 45711U 20035BG  26162.86007002  .00053926  00000+0  45640-3 0  9994,2 45711  53.0431 280.1533 0004481 103.4356 256.7160 15.69197212334096
STARLINK-1434,45712,53.0506,0.0001172,15.34782337,460.7654766652604,462.36870330395413,1 45712U 20035BH  26162.64565856  .00048359  00000+0  14158-2 0  9990,2 45712  53.0506 302.0783 0001172  47.3855 312.7245 15.34782337333787
STARLINK-1465,45731,53.0426,0.0001241,15.68795059,361.50973976716705,363.18272770578096,1 45731U 20038B   26162.17311493  .00048358  00000+0  41704-3 0  9995,2 45731  53.0426 129.1404 0001241  93.9726 266.1432 15.68795059330956
STARLINK-1471,45735,53.0458,0.0002728,15.5375478,403.92409632491126,407.62539857432057,1 45735U 20038F   26162.95949339  .00026118  00000+0  40640-3 0  9999,2 45735  53.0458  48.6809 0002728 129.8925 230.2324 15.53754780332167
STARLINK-1480,45741,53.0468,0.0006402,15.65701733,366.90040015994055,375.5422785776691,1 45741U 20038M   26162.61161621  .00049038  00000+0  47872-3 0  9999,2 45741  53.0468 120.7701 0006402  46.0984 314.0558 15.65701733331124
STARLINK-1500,45744,53.034,0.0001949,15.39374101,446.62858118419626,449.289393400044,1 45744U 20038Q   26162.10755556  .00022781  00000+0  58241-3 0  9990,2 45744  53.0340 112.9417 0001949 123.4600 236.6590 15.39374101331186
STARLINK-1504,45746,53.0205,0.0003155,15.59360625,387.3711874042383,391.64157037631776,1 45746U 20038S   26162.95858692  .00034192  00000+0  43009-3 0  9995,2 45746  53.0205  45.2359 0003155 117.2936 242.8397 15.59360625332199
STARLINK-1506,45747,53.0757,0.0001782,15.28374644,479.4484375147267,481.8929165708241,1 45747U 20038T   26162.62270868  .00006714  00000+0  25213-3 0  9999,2 45747  53.0757 127.0575 0001782 161.7611 198.3452 15.28374644331041
STARLINK-1464,45751,53.0451,0.0004719,15.5433113,400.8971125904718,407.2981856523129,1 45751U 20038X   26162.14914668  .00024762  00000+0  37769-3 0  9996,2 45751  53.0451 116.3907 0004719  49.8899 310.2524 15.54331130331142
STARLINK-1477,45754,53.0453,0.0001522,15.19097223,507.5195512358887,509.6158641489101,1 45754U 20038AA  26162.46426396  .00020532  00000+0  97871-3 0  9991,2 45754  53.0453 145.1543 0001522   7.6128 352.4889 15.19097223330761
STARLINK-1478,45755,53.0442,0.0004569,15.68912168,358.93123412994646,365.09038119659,1 45755U 20038AB  26162.96470997  .00055190  00000+0  47240-3 0  9996,2 45755  53.0442  96.7662 0004569  90.4556 269.6984 15.68912168331474
STARLINK-1493,45759,53.045,0.0006768,15.65462363,367.3409061241464,376.4777688465656,1 45759U 20038AF  26162.93286264  .00048798  00000+0  48093-3 0  9992,2 45759  53.0450 106.7149 0006768  44.0356 316.1197 15.65462363331338
STARLINK-1494,45760,53.0328,0.0008184,16.20076879,213.9437686464389,224.74252415006413,1 45760U 20038AG  26162.88656890  .01320263  11812-4  65772-3 0  9996,2 45760  53.0328  33.0700 0008184 257.1245 102.8879 16.20076879332363
STARLINK-1502,45764,53.0431,0.0005757,15.62414982,376.79242895039715,384.5745348532582,1 45764U 20038AL  26162.16152607  .00145192  00000+0  15831-2 0  9995,2 45764  53.0431 114.3853 0005757  15.9385 344.1809 15.62414982331170
STARLINK-1470,45772,53.0422,0.0003992,15.35564326,456.51532198360655,461.9742876165592,1 45772U 20038AU  26162.09988958  .00042357  00000+0  12117-2 0  9995,2 45772  53.0422  98.1451 0003992  49.5751 310.5598 15.35564326331395
STARLINK-1482,45773,53.1546,0.0004878,15.3812256,448.32975246247406,454.9929037113552,1 45773U 20038AV  26162.16953916  .00040429  00000+0  10659-2 0  9997,2 45773  53.1546 114.2237 0004878  42.6573 317.4809 15.38122560331198
STARLINK-1496,45780,53.0459,5.75e-05,15.69161238,360.91003735133927,361.6850723251464,1 45780U 20038BC  26162.94873031  .00054714  00000+0  46382-3 0  9995,2 45780  53.0459  80.8626 0000575 153.9890 206.1155 15.69161238331698
STARLINK-1513,45786,53.1601,0.0001336,15.31715213,469.77964253164373,471.6096503475728,1 45786U 20038BJ  26162.16504685  .00001835  00000+0  70859-4 0  9994,2 45786  53.1601 116.3567 0001336 100.5215 259.5937 15.31715213331167
STARLINK-1522,46027,53.0636,0.0003032,15.13312216,524.0139226558085,528.2006563929763,1 46027U 20055A   26162.92287181  .00015186  00000+0  85780-3 0  9997,2 46027  53.0636  60.3655 0003032  65.5234 294.6074 15.13312216323131
STARLINK-1523,46028,53.1611,8.65e-05,15.30610499,473.39695838112766,474.58237629457835,1 46028U 20055B   26162.96539337  .00012236  00000+0  41924-3 0  9990,2 46028  53.1611  48.7840 0000865 115.7289 244.3802 15.30610499323337
STARLINK-1526,46029,53.1605,0.0001425,15.30224342,474.16579724546136,476.11898187148563,1 46029U 20055C   26162.96109843  .00023770  00000+0  81150-3 0  9996,2 46029  53.1605  48.8312 0001425  64.5481 295.5667 15.30224342323328
STARLINK-1555,46032,53.162,0.0001465,15.30196674,474.22098274075597,476.22901780683696,1 46032U 20055F   26162.94531815  .00003124  00000+0  11758-3 0  9994,2 46032  53.1620  48.8882 0001465  89.6777 270.4392 15.30196674323324
STARLINK-1556,46033,53.16,0.0001755,15.30186719,474.051954130593,476.4574946258499,1 46033U 20055G   26162.92846171  .00004967  00000+0  17980-3 0  9996,2 46033  53.1600  48.9819 0001755 119.7747 240.3428 15.30186719323299
STARLINK-1557,46034,53.1603,0.0001036,15.30180778,474.5624502269311,475.9824766677584,1 46034U 20055H   26162.93161202  .00006947  00000+0  24660-3 0  9996,2 46034  53.1603  48.9677 0001036  88.2339 271.8780 15.30180778323293
STARLINK-1558,46035,53.1607,0.0001198,15.30184308,474.44088611221105,476.0829604942346,1 46035U 20055J   26162.93898911  .00000322  00000+0  23021-4 0  9993,2 46035  53.1607  48.9329 0001198  86.4670 273.6468 15.30184308323329
STARLINK-1560,46036,53.1597,0.0001235,15.3017784,474.43483883132103,476.12763313560845,1 46036U 20055K   26162.92530588  .00000192  00000+0  18625-4 0  9995,2 46036  53.1597  49.0030 0001235  93.1694 266.9448 15.30177840323328
STARLINK-1569,46039,53.1615,0.0001544,15.30186506,474.19719658666054,476.313524147542,1 46039U 20055N   26162.87682965 -.00001130  00000+0 -26053-4 0  9998,2 46039  53.1615  49.2116 0001544  84.1848 275.9328 15.30186506323307
STARLINK-1582,46043,53.1597,0.0001183,15.31707851,469.9063725232236,471.5268112830681,1 46043U 20055S   26162.95533127  .00001151  00000+0  48829-4 0  9993,2 46043  53.1597  48.2067 0001183  73.6519 286.4612 15.31707851323320
STARLINK-1591,46045,53.1593,0.0001254,15.30181177,474.4118546832606,476.13068947789907,1 46045U 20055U   26162.90948644  .00000002  00000+0  12193-4 0  9993,2 46045  53.1593  49.0641 0001254 114.3857 245.7274 15.30181177323296
STARLINK-1524,46047,53.1603,0.0001165,15.3172929,469.8548006528463,471.4505686493703,1 46047U 20055W   26162.92465183  .00006951  00000+0  23532-3 0  9996,2 46047  53.1603  35.6473 0001165 126.4059 233.7050 15.31729290323501
STARLINK-1527,46048,53.1599,9.28e-05,15.31700836,470.101927600389,471.37307870817403,1 46048U 20055X   26162.92000210 -.00000480  00000+0 -37063-5 0  9992,2 46048  53.1599  35.6492 0000928  69.0633 291.0468 15.31700836323474
STARLINK-1540,46051,53.1612,0.000132,15.31700062,469.8357586679058,471.64386214585375,1 46051U 20055AA  26162.97129492 -.00002372  00000+0 -64690-4 0  9992,2 46051  53.1612  35.6249 0001320  82.2640 277.8511 15.31700062323524
STARLINK-1541,46052,53.1574,0.000479,15.85712686,311.11305158539835,317.5244241822902,1 46052U 20055AB  26163.00003472  .00197410  00000+0  78049-3 0  9995,2 46052  53.1574  17.7188 0004790 256.2657 218.7440 15.85712686  6077
STARLINK-1543,46053,53.1603,0.0001497,15.31700999,469.71174081986555,471.76229370063265,1 46053U 20055AC  26162.94330671 -.00000889  00000+0 -16873-4 0  9995,2 46053  53.1603  35.5603 0001497  97.9310 262.1861 15.31700999323514
STARLINK-1548,46054,53.1606,0.000133,15.31701143,469.82568781703776,471.6474881914464,1 46054U 20055AD  26162.95729843 -.00000846  00000+0 -15510-4 0  9990,2 46054  53.1606  35.5691 0001330  85.5700 274.5453 15.31701143323513
STARLINK-1554,46055,53.1603,0.0001108,15.31711242,469.9476317556155,471.4653354715847,1 46055U 20055AE  26162.93865819  .00004462  00000+0  15542-3 0  9993,2 46055  53.1603  35.5994 0001108  93.6056 266.5072 15.31711242323513
STARLINK-1564,46058,53.1616,0.0001065,15.30196438,474.4958218018255,475.95558805797555,1 46058U 20055AH  26162.93218739 -.00000525  00000+0 -55997-5 0  9997,2 46058  53.1616  36.6220 0001065  80.2116 279.9005 15.30196438323499
